{"type": "FeatureCollection", "features": [{"type": "Feature", "properties": {"norad_id": 28054, "name": "DMSP 5D-3 F16 (USA 172)", "group": "weather", "lat": 27.88767683653301, "lon": -10.859275872022641, "alt_km": 839.002417433514, "timestamp": "2025-12-02T13:52:16.918859+00:00", "meta": {"OBJECT_NAME": "DMSP 5D-3 F16 (USA 172)", "OBJECT_ID": "2003-048A", "EPOCH": "2025-12-02T06:59:48.384672", "MEAN_MOTION": 14.14418179, "ECCENTRICITY": 0.00069328, "INCLINATION": 99.0054, "RA_OF_ASC_NODE": 353.666, "ARG_OF_PERICENTER": 352.5762, "MEAN_ANOMALY": 18.0199, "EPHEMERIS_TYPE": 0, "CLASSIFICATION_TYPE": "U", "NORAD_CAT_ID": 28054, "ELEMENT_SET_NO": 999, "REV_AT_EPOCH": 14165, "BSTAR": 0.00012769462, "MEAN_MOTION_DOT": 1.99e-06, "MEAN_MOTION_DDOT": 0}, "tle": {"line1": "1 28054U 03048A   25336.29153223  .00000199  00000+0  12769-3 0  9996", "line2": "2 28054  99.0054 353.6660 0006932 352.5762  18.0199 14.14418179141652"}}, "geometry": {"type": "Point", "coordinates": [-10.859275872022641, 27.88767683653301]}}, {"type": "Feature", "properties": {"norad_id": 28912, "name": "METEOSAT-9 (MSG-2)", "group": "weather", "lat": -8.916653492749765, "lon": -34.62640938891872, "alt_km": 35785.85235681134, "timestamp": "2025-12-02T13:52:16.918908+00:00", "meta": {"OBJECT_NAME": "METEOSAT-9 (MSG-2)", "OBJECT_ID": "2005-049B", "EPOCH": "2025-12-01T20:52:41.183904", "MEAN_MOTION": 1.0027085, "ECCENTRICITY": 0.00039633, "INCLINATION": 8.9132, "RA_OF_ASC_NODE": 56.0736, "ARG_OF_PERICENTER": 184.5981, "MEAN_ANOMALY": 189.0848, "EPHEMERIS_TYPE": 0, "CLASSIFICATION_TYPE": "U", "NORAD_CAT_ID": 28912, "ELEMENT_SET_NO": 999, "REV_AT_EPOCH": 502, "BSTAR": 0, "MEAN_MOTION_DOT": 1.42e-06, "MEAN_MOTION_DDOT": 0}, "tle": {"line1": "1 28912U 05049B   25335.86992111  .00000142  00000+0  00000+0 0  9990", "line2": "2 28912   8.9132  56.0736 0003963 184.5981 189.0848  1.00270850  5029"}}, "geometry": {"type": "Point", "coordinates": [-34.62640938891872, -8.916653492749765]}}, {"type": "Feature", "properties": {"norad_id": 29522, "name": "DMSP 5D-3 F17 (USA 191)", "group": "weather", "lat": -48.38203581965771, "lon": -7.850584629634688, "alt_km": 845.5441014223125, "timestamp": "2025-12-02T13:52:16.918926+00:00", "meta": {"OBJECT_NAME": "DMSP 5D-3 F17 (USA 191)", "OBJECT_ID": "2006-050A", "EPOCH": "2025-12-02T05:37:02.266464", "MEAN_MOTION": 14.14912278, "ECCENTRICITY": 0.00091363, "INCLINATION": 98.7395, "RA_OF_ASC_NODE": 341.8418, "ARG_OF_PERICENTER": 257.7386, "MEAN_ANOMALY": 102.2765, "EPHEMERIS_TYPE": 0, "CLASSIFICATION_TYPE": "U", "NORAD_CAT_ID": 29522, "ELEMENT_SET_NO": 999, "REV_AT_EPOCH": 98456, "BSTAR": 0.00015226182, "MEAN_MOTION_DOT": 2.51e-06, "MEAN_MOTION_DDOT": 0}, "tle": {"line1": "1 29522U 06050A   25336.23405401  .00000251  00000+0  15226-3 0  9995", "line2": "2 29522  98.7395 341.8418 0009136 257.7386 102.2765 14.14912278984563"}}, "geometry": {"type": "Point", "coordinates": [-7.850584629634688, -48.38203581965771]}}, {"type": "Feature", "properties": {"norad_id": 32958, "name": "FENGYUN 3A", "group": "weather", "lat": -36.54908413460517, "lon": 89.82625758476169, "alt_km": 836.756732662182, "timestamp": "2025-12-02T13:52:16.918939+00:00", "meta": {"OBJECT_NAME": "FENGYUN 3A", "OBJECT_ID": "2008-026A", "EPOCH": "2025-12-02T06:05:06.933408", "MEAN_MOTION": 14.19509144, "ECCENTRICITY": 0.00084082, "INCLINATION": 98.6682, "RA_OF_ASC_NODE": 276.0019, "ARG_OF_PERICENTER": 342.6731, "MEAN_ANOMALY": 17.4157, "EPHEMERIS_TYPE": 0, "CLASSIFICATION_TYPE": "U", "NORAD_CAT_ID": 32958, "ELEMENT_SET_NO": 999, "REV_AT_EPOCH": 90746, "BSTAR": 9.9842562e-05, "MEAN_MOTION_DOT": 1.67e-06, "MEAN_MOTION_DDOT": 0}, "tle": {"line1": "1 32958U 08026A   25336.25355247  .00000167  00000+0  99843-4 0  9995", "line2": "2 32958  98.6682 276.0019 0008408 342.6731  17.4157 14.19509144907468"}}, "geometry": {"type": "Point", "coordinates": [89.82625758476169, -36.54908413460517]}}, {"type": "Feature", "properties": {"norad_id": 35491, "name": "GOES 14", "group": "weather", "lat": 1.152321001741037, "lon": 171.33978318528705, "alt_km": 35777.88426132148, "timestamp": "2025-12-02T13:52:16.918953+00:00", "meta": {"OBJECT_NAME": "GOES 14", "OBJECT_ID": "2009-033A", "EPOCH": "2025-12-02T06:50:43.230912", "MEAN_MOTION": 1.0027265, "ECCENTRICITY": 0.00041476, "INCLINATION": 1.1697, "RA_OF_ASC_NODE": 85.5328, "ARG_OF_PERICENTER": 149.3275, "MEAN_ANOMALY": 190.8694, "EPHEMERIS_TYPE": 0, "CLASSIFICATION_TYPE": "U", "NORAD_CAT_ID": 35491, "ELEMENT_SET_NO": 999, "REV_AT_EPOCH": 461, "BSTAR": 0, "MEAN_MOTION_DOT": -4.7e-07, "MEAN_MOTION_DDOT": 0}, "tle": {"line1": "1 35491U 09033A   25336.28522258 -.00000047  00000+0  00000+0 0  9990", "line2": "2 35491   1.1697  85.5328 0004147 149.3275 190.8694  1.00272650  4617"}}, "geometry": {"type": "Point", "coordinates": [171.33978318528705, 1.152321001741037]}}, {"type": "Feature", "properties": {"norad_id": 35951, "name": "DMSP 5D-3 F18 (USA 210)", "group": "weather", "lat": -3.8753213724878335, "lon": 132.42320592818086, "alt_km": 847.2330721613571, "timestamp": "2025-12-02T13:52:16.918965+00:00", "meta": {"OBJECT_NAME": "DMSP 5D-3 F18 (USA 210)", "OBJECT_ID": "2009-057A", "EPOCH": "2025-12-02T06:13:01.991712", "MEAN_MOTION": 14.14759386, "ECCENTRICITY": 0.00121071, "INCLINATION": 98.8822, "RA_OF_ASC_NODE": 312.7129, "ARG_OF_PERICENTER": 89.9865, "MEAN_ANOMALY": 270.2695, "EPHEMERIS_TYPE": 0, "CLASSIFICATION_TYPE": "U", "NORAD_CAT_ID": 35951, "ELEMENT_SET_NO": 999, "REV_AT_EPOCH": 83174, "BSTAR": 0.00020018904, "MEAN_MOTION_DOT": 3.42e-06, "MEAN_MOTION_DDOT": 0}, "tle": {"line1": "1 35951U 09057A   25336.25905083  .00000342  00000+0  20019-3 0  9998", "line2": "2 35951  98.8822 312.7129 0012107  89.9865 270.2695 14.14759386831745"}}, "geometry": {"type": "Point", "coordinates": [132.42320592818086, -3.8753213724878335]}}, {"type": "Feature", "properties": {"norad_id": 36411, "name": "EWS-G2 (GOES 15)", "group": "weather", "lat": -0.748842557293922, "lon": -18.696871849848886, "alt_km": 35785.559016497224, "timestamp": "2025-12-02T13:52:16.918978+00:00", "meta": {"OBJECT_NAME": "EWS-G2 (GOES 15)", "OBJECT_ID": "2010-008A", "EPOCH": "2025-12-02T05:14:38.883840", "MEAN_MOTION": 1.0026755, "ECCENTRICITY": 0.00059051, "INCLINATION": 0.7855, "RA_OF_ASC_NODE": 86.0568, "ARG_OF_PERICENTER": 169.385, "MEAN_ANOMALY": 316.0641, "EPHEMERIS_TYPE": 0, "CLASSIFICATION_TYPE": "U", "NORAD_CAT_ID": 36411, "ELEMENT_SET_NO": 999, "REV_AT_EPOCH": 5766, "BSTAR": 0, "MEAN_MOTION_DOT": 5.8e-07, "MEAN_MOTION_DDOT": 0}, "tle": {"line1": "1 36411U 10008A   25336.21850560  .00000058  00000+0  00000+0 0  9991", "line2": "2 36411   0.7855  86.0568 0005905 169.3850 316.0641  1.00267550 57667"}}, "geometry": {"type": "Point", "coordinates": [-18.696871849848886, -0.748842557293922]}}, {"type": "Feature", "properties": {"norad_id": 36744, "name": "COMS 1", "group": "weather", "lat": -2.1442871470757168, "lon": 47.97460144166744, "alt_km": 35790.68549234882, "timestamp": "2025-12-02T13:52:16.918991+00:00", "meta": {"OBJECT_NAME": "COMS 1", "OBJECT_ID": "2010-032A", "EPOCH": "2025-12-01T12:42:46.444608", "MEAN_MOTION": 1.00270535, "ECCENTRICITY": 0.00010192, "INCLINATION": 4.3122, "RA_OF_ASC_NODE": 78.1218, "ARG_OF_PERICENTER": 177.7332, "MEAN_ANOMALY": 133.6625, "EPHEMERIS_TYPE": 0, "CLASSIFICATION_TYPE": "U", "NORAD_CAT_ID": 36744, "ELEMENT_SET_NO": 999, "REV_AT_EPOCH": 4910, "BSTAR": 0, "MEAN_MOTION_DOT": -3.23e-06, "MEAN_MOTION_DDOT": 0}, "tle": {"line1": "1 36744U 10032A   25335.52970422 -.00000323  00000+0  00000+0 0  9996", "line2": "2 36744   4.3122  78.1218 0001019 177.7332 133.6625  1.00270535 49109"}}, "geometry": {"type": "Point", "coordinates": [47.97460144166744, -2.1442871470757168]}}, {"type": "Feature", "properties": {"norad_id": 37214, "name": "FENGYUN 3B", "group": "weather", "lat": 31.950277633828346, "lon": -157.8488008993043, "alt_km": 849.498183531, "timestamp": "2025-12-02T13:52:16.919003+00:00", "meta": {"OBJECT_NAME": "FENGYUN 3B", "OBJECT_ID": "2010-059A", "EPOCH": "2025-12-02T06:48:43.853760", "MEAN_MOTION": 14.14785104, "ECCENTRICITY": 0.00224888, "INCLINATION": 98.9923, "RA_OF_ASC_NODE": 16.1875, "ARG_OF_PERICENTER": 27.2198, "MEAN_ANOMALY": 62.8177, "EPHEMERIS_TYPE": 0, "CLASSIFICATION_TYPE": "U", "NORAD_CAT_ID": 37214, "ELEMENT_SET_NO": 999, "REV_AT_EPOCH": 77958, "BSTAR": 9.4867446e-05, "MEAN_MOTION_DOT": 1.38e-06, "MEAN_MOTION_DDOT": 0}, "tle": {"line1": "1 37214U 10059A   25336.28384090  .00000138  00000+0  94867-4 0  9994", "line2": "2 37214  98.9923  16.1875 0022488  27.2198  62.8177 14.14785104779582"}}, "geometry": {"type": "Point", "coordinates": [-157.8488008993043, 31.950277633828346]}}, {"type": "Feature", "properties": {"norad_id": 37849, "name": "SUOMI NPP", "group": "weather", "lat": 4.153596490750328, "lon": 94.65450783439599, "alt_km": 828.3079613484279, "timestamp": "2025-12-02T13:52:16.919014+00:00", "meta": {"OBJECT_NAME": "SUOMI NPP", "OBJECT_ID": "2011-061A", "EPOCH": "2025-12-02T06:16:47.285760", "MEAN_MOTION": 14.19509352, "ECCENTRICITY": 0.0001856, "INCLINATION": 98.7757, "RA_OF_ASC_NODE": 273.6984, "ARG_OF_PERICENTER": 138.8637, "MEAN_ANOMALY": 221.2679, "EPHEMERIS_TYPE": 0, "CLASSIFICATION_TYPE": "U", "NORAD_CAT_ID": 37849, "ELEMENT_SET_NO": 999, "REV_AT_EPOCH": 73050, "BSTAR": 8.4039283e-05, "MEAN_MOTION_DOT": 1.33e-06, "MEAN_MOTION_DDOT": 0}, "tle": {"line1": "1 37849U 11061A   25336.26165840  .00000133  00000+0  84039-4 0  9995", "line2": "2 37849  98.7757 273.6984 0001856 138.8637 221.2679 14.19509352730504"}}, "geometry": {"type": "Point", "coordinates": [94.65450783439599, 4.153596490750328]}}]}